TJS-7                   
1 49115U 21077A   26192.24481294 -.00000116  00000+0  00000+0 0  9998
2 49115   0.2967 264.1443 0003055 109.3765 264.2724  1.00269753  9799
CHINASAT 9B             
1 49125U 21080A   26192.08598683 -.00000305  00000+0  00000+0 0  9996
2 49125   0.0224  85.5985 0002110  59.9655 275.8108  1.00270445 17882
SHIJIAN-21 (SJ-21)      
1 49330U 21094A   26191.76459877 -.00000344  00000+0  00000+0 0  9997
2 49330   5.1659  61.0327 0051689 168.8611 101.8212  1.00280176  5595
SES-17                  
1 49332U 21095A   26192.21382524 -.00000265  00000+0  00000+0 0  9997
2 49332   0.0219  45.8226 0001106  94.4892 158.6910  1.00271236 18096
SYRACUSE 4A             
1 49333U 21095B   26192.07489344  .00000000  00000+0  00000+0 0  9996
2 49333   0.0261  42.7334 0001569  67.2799 251.4431  1.00266633 18182
QZS-1R (MICHIBIKI-1R)   
1 49336U 21096A   26191.59113987 -.00000288  00000+0  00000+0 0  9992
2 49336  37.5070  79.2376 0754836 272.1561 282.0570  1.00246773 17248
ZHONGXING-1D            
1 49505U 21114A   26192.20572419 -.00000329  00000+0  00000+0 0  9995
2 49505   0.0485 238.3813 0000455  27.2107 227.7837  1.00270537 17068
STPSAT-6                
1 49817U 21118A   26191.90116522 -.00000037  00000+0  00000+0 0  9996
2 49817   0.3791  85.1373 0000970 239.5100 176.8277  1.00269942 16811
EXPRESS AMU-7           
1 50001U 21123A   26192.18517010 -.00000236  00000+0  00000+0 0  9998
2 50001   0.0199 300.1596 0000149 336.8878 223.7121  1.00270955 16787
EXPRESS AMU-3           
1 50002U 21123B   26189.91737127  .00000000  00000+0  00000+0 0  9997
2 50002   0.0184 333.0820 0000226  10.8701  16.0472  1.00271716  7257
TIANLIAN 2-02           
1 50005U 21124A   26192.19072464 -.00000008  00000+0  00000+0 0  9990
2 50005   0.8599  85.7835 0001445 163.0418 279.9116  1.00270649 16861
TURKSAT 5B              
1 50212U 21126A   26192.07420009  .00000154  00000+0  00000+0 0  9992
2 50212   0.0696 339.4475 0002491  13.7549   4.4932  1.00273291 16535
INMARSAT 6-F1           
1 50319U 21128A   26191.21155722 -.00000161  00000+0  00000+0 0  9993
2 50319   0.0131 324.9131 0000270 240.3811 242.7501  1.00271944 16495
SHIYAN-12 01 (SY-12 01) 
1 50321U 21129A   26191.71757647  .00000156  00000+0  00000+0 0  9999
2 50321   3.7322  79.5938 0002612 285.3111 222.9004  1.00048917 16739
SHIYAN-12 02 (SY-12 02) 
1 50322U 21129B   26191.75983953 -.00000350  00000+0  00000+0 0  9992
2 50322   3.7315  79.5940 0003046  69.9045 159.7814  1.00479575 16733
TJS-9                   
1 50574U 21135A   26191.52274052 -.00000288  00000+0  00000+0 0  9996
2 50574   0.0366 116.4144 0002445 311.1845 186.2444  1.00274653 16663
GOES 18                 
1 51850U 22021A   26192.22617122  .00000104  00000+0  00000+0 0  9992
2 51850   0.0048 121.9165 0000597  69.6185  42.0202  1.00272401  6838
ZHONGXING-6D            
1 52255U 22038A   26191.85051916 -.00000345  00000+0  00000+0 0  9999
2 52255   0.0365 248.3949 0000485 271.4104 200.1943  1.00274360 15659
NILESAT 301             
1 52817U 22061A   26192.17405793 -.00000051  00000+0  00000+0 0  9995
2 52817   0.0480 344.2759 0003601  93.5451 266.9741  1.00269276 14977
CMS-02 (GSAT-24)        
1 52903U 22067A   26192.08234681 -.00000157  00000+0  00000+0 0  9990
2 52903   0.0140  90.6301 0000674 258.9419  52.0622  1.00272018 14845
MEASAT 3D               
1 52904U 22067B   26192.01272836 -.00000235  00000+0  00000+0 0  9995
2 52904   0.0532 301.4385 0000128 111.5907 331.9809  1.00281320 14882
SES-22                  
1 52933U 22071A   26192.18717697  .00000112  00000+0  00000+0 0  9992
2 52933   0.0159 315.7552 0000818 143.4530 118.2588  1.00269883  7764
WFOV (USA 332)          
1 52940U 22073A   26192.07128066 -.00000358  00000+0  00000+0 0  9999
2 52940   3.7691  78.2260 0001524 215.0501 140.6800  1.00269421 14604
TIANLIAN 2-03           
1 53100U 22078A   26191.71146227  .00000081  00000+0  00000+0 0  9994
2 53100   0.7296  77.4237 0000894 359.4458 118.5011  1.00273989 14780
SBIRS GEO-6 (USA 336)   
1 53355U 22092A   26192.18516800 -.00000281  00000+0  00000+0 0  9995
2 53355   3.2187 317.8712 0001659 152.1383  24.7528  1.00270408 14473
EUTELSAT KONNECT VHTS   
1 53765U 22110A   26190.99714034  .00000028  00000+0  00000+0 0  9995
2 53765   0.0574  99.4254 0002726 357.9814 192.1880  1.00266609  7063
ZHONGXING-1E            
1 53813U 22112A   26191.79691975 -.00000140  00000+0  00000+0 0  9994
2 53813   0.0650 237.2315 0000895  44.7131  15.0344  1.00272702 14089
SES-20                  
1 53960U 22123A   26192.20044266 -.00000094  00000+0  00000+0 0  9999
2 53960   0.0162  63.3024 0001931  44.5022 150.3657  1.00271485 13776
SES-21                  
1 53961U 22123B   26190.61419269  .00000000  00000+0  00000+0 0  9998
2 53961   0.0388  30.3604 0000986  78.8346 268.5390  1.00268199  7433
GALAXY 33 (G-33)        
1 54026U 22128A   26192.18918795  .00000086  00000+0  00000+0 0  9992
2 54026   0.0141  25.2451 0001782  93.0323 105.9293  1.00270793 13981
GALAXY 34 (G-34)        
1 54027U 22128B   26192.04037515  .00000067  00000+0  00000+0 0  9999
2 54027   0.0112  37.5715 0001349  92.1383  44.7761  1.00269972 14151
ANGOSAT 2               
1 54033U 22131A   26192.07047341  .00000143  00000+0  00000+0 0  9996
2 54033   0.0205 117.2126 0000208 117.2550 102.8867  1.00271663 13715
