OBJECT_NAME,OBJECT_ID,EPOCH,MEAN_MOTION,ECCENTRICITY,INCLINATION,RA_OF_ASC_NODE,ARG_OF_PERICENTER,MEAN_ANOMALY,EPHEMERIS_TYPE,CLASSIFICATION_TYPE,NORAD_CAT_ID,ELEMENT_SET_NO,REV_AT_EPOCH,BSTAR,MEAN_MOTION_DOT,MEAN_MOTION_DDOT
TJS-7,2021-077A,2026-07-11T05:52:31.838016,1.00269753,.0003055,0.2967,264.1443,109.3765,264.2724,0,U,49115,999,979,0,-.116E-5,0
CHINASAT 9B,2021-080A,2026-07-11T02:03:49.262112,1.00270445,.000211,0.0224,85.5985,59.9655,275.8108,0,U,49125,999,1788,0,-.305E-5,0
SHIJIAN-21 (SJ-21),2021-094A,2026-07-10T18:21:01.333728,1.00280176,.0051689,5.1659,61.0327,168.8611,101.8212,0,U,49330,999,559,0,-.344E-5,0
SES-17,2021-095A,2026-07-11T05:07:54.500736,1.00271236,.0001106,0.0219,45.8226,94.4892,158.6910,0,U,49332,999,1809,0,-.265E-5,0
SYRACUSE 4A,2021-095B,2026-07-11T01:47:50.793216,1.00266633,.0001569,0.0261,42.7334,67.2799,251.4431,0,U,49333,999,1818,0,0,0
QZS-1R (MICHIBIKI-1R),2021-096A,2026-07-10T14:11:14.484768,1.00246773,.0754836,37.5070,79.2376,272.1561,282.0570,0,U,49336,999,1724,0,-.288E-5,0
ZHONGXING-1D,2021-114A,2026-07-11T04:56:14.570016,1.00270537,.0000455,0.0485,238.3813,27.2107,227.7837,0,U,49505,999,1706,0,-.329E-5,0
STPSAT-6,2021-118A,2026-07-10T21:37:40.675008,1.00269942,.000097,0.3791,85.1373,239.5100,176.8277,0,U,49817,999,1681,0,-.37E-6,0
EXPRESS AMU-7,2021-123A,2026-07-11T04:26:38.696640,1.00270955,.0000149,0.0199,300.1596,336.8878,223.7121,0,U,50001,999,1678,0,-.236E-5,0
EXPRESS AMU-3,2021-123B,2026-07-08T22:01:00.877728,1.00271716,.00002261,0.0184,333.0820,10.8701,16.0472,0,U,50002,999,725,0,0,0
TIANLIAN 2-02,2021-124A,2026-07-11T04:34:38.608896,1.00270649,.0001445,0.8599,85.7835,163.0418,279.9116,0,U,50005,999,1686,0,-.8E-7,0
TURKSAT 5B,2021-126A,2026-07-11T01:46:50.887776,1.00273291,.0002491,0.0696,339.4475,13.7549,4.4932,0,U,50212,999,1653,0,.154E-5,0
INMARSAT 6-F1,2021-128A,2026-07-10T05:04:38.543808,1.00271944,.00002705,0.0131,324.9131,240.3811,242.7501,0,U,50319,999,1649,0,-.161E-5,0
SHIYAN-12 01 (SY-12 01),2021-129A,2026-07-10T17:13:18.607008,1.00048917,.0002612,3.7322,79.5938,285.3111,222.9004,0,U,50321,999,1673,0,.156E-5,0
SHIYAN-12 02 (SY-12 02),2021-129B,2026-07-10T18:14:10.135392,1.00479575,.0003046,3.7315,79.5940,69.9045,159.7814,0,U,50322,999,1673,0,-.35E-5,0
TJS-9,2021-135A,2026-07-10T12:32:44.780928,1.00274653,.0002445,0.0366,116.4144,311.1845,186.2444,0,U,50574,999,1666,0,-.288E-5,0
GOES 18,2022-021A,2026-07-11T05:25:41.193408,1.00272401,.0000597,0.0048,121.9165,69.6185,42.0202,0,U,51850,999,683,0,.104E-5,0
ZHONGXING-6D,2022-038A,2026-07-10T20:24:44.855424,1.00274360,.0000485,0.0365,248.3949,271.4104,200.1943,0,U,52255,999,1565,0,-.345E-5,0
NILESAT 301,2022-061A,2026-07-11T04:10:38.605152,1.00269276,.0003601,0.0480,344.2759,93.5451,266.9741,0,U,52817,999,1497,0,-.51E-6,0
CMS-02 (GSAT-24),2022-067A,2026-07-11T01:58:34.764384,1.00272018,.0000674,0.0140,90.6301,258.9419,52.0622,0,U,52903,999,1484,0,-.157E-5,0
MEASAT 3D,2022-067B,2026-07-11T00:18:19.730304,1.00281320,.0000128,0.0532,301.4385,111.5907,331.9809,0,U,52904,999,1488,0,-.235E-5,0
SES-22,2022-071A,2026-07-11T04:29:32.090208,1.00269883,.0000818,0.0159,315.7552,143.4530,118.2588,0,U,52933,999,776,0,.112E-5,0
WFOV (USA 332),2022-073A,2026-07-11T01:42:38.649024,1.00269421,.0001524,3.7691,78.2260,215.0501,140.6800,0,U,52940,999,1460,0,-.358E-5,0
TIANLIAN 2-03,2022-078A,2026-07-10T17:04:30.340128,1.00273989,.0000894,0.7296,77.4237,359.4458,118.5011,0,U,53100,999,1478,0,.81E-6,0
SBIRS GEO-6 (USA 336),2022-092A,2026-07-11T04:26:38.515200,1.00270408,.0001659,3.2187,317.8712,152.1383,24.7528,0,U,53355,999,1447,0,-.281E-5,0
EUTELSAT KONNECT VHTS,2022-110A,2026-07-09T23:55:52.925376,1.00266609,.00027264,0.0574,99.4254,357.9814,192.1880,0,U,53765,999,706,0,.28E-6,0
ZHONGXING-1E,2022-112A,2026-07-10T19:07:33.866400,1.00272702,.0000895,0.0650,237.2315,44.7131,15.0344,0,U,53813,999,1408,0,-.14E-5,0
SES-20,2022-123A,2026-07-11T04:48:38.245824,1.00271485,.0001931,0.0162,63.3024,44.5022,150.3657,0,U,53960,999,1377,0,-.94E-6,0
SES-21,2022-123B,2026-07-09T14:44:26.248416,1.00268199,.00009867,0.0388,30.3604,78.8346,268.5390,0,U,53961,999,743,0,0,0
GALAXY 33 (G-33),2022-128A,2026-07-11T04:32:25.838880,1.00270793,.0001782,0.0141,25.2451,93.0323,105.9293,0,U,54026,999,1398,0,.86E-6,0
GALAXY 34 (G-34),2022-128B,2026-07-11T00:58:08.412960,1.00269972,.0001349,0.0112,37.5715,92.1383,44.7761,0,U,54027,999,1415,0,.67E-6,0
ANGOSAT 2,2022-131A,2026-07-11T01:41:28.902624,1.00271663,.0000208,0.0205,117.2126,117.2550,102.8867,0,U,54033,999,1371,0,.143E-5,0
